STARLINK-30975          
1 58446U 23183K   26068.26863387  .00000381  00000+0  23887-4 0  9992
2 58446  43.0011  43.6658 0001642 270.5537  89.5126 15.26744851126690
LYNK TOWER 6            
1 59123U 24043AB  26068.89488777  .00011440  00000+0  40142-3 0  9996
2 59123  97.5426 204.1954 0009749 232.0253 128.0107 15.29548678111845
